NORAD_CAT_ID,OBJECT_NAME,OBJECT_TYPE,EPOCH,MEAN_MOTION,ECCENTRICITY,INCLINATION,RA_OF_ASC_NODE,ARG_OF_PERICENTER,MEAN_ANOMALY,BSTAR,MEAN_MOTION_DOT,MEAN_MOTION_DDOT,TLE_LINE0,TLE_LINE1,TLE_LINE2,SEMIMAJOR_AXIS,PERIOD,APOGEE,PERIGEE,DECAYED
52874.0,STARLINK-4210,PAYLOAD,2023-05-03 01:48:25,15.08845994,0.000112,53.2183,10.1088,63.4386,296.6721,0.00010695,1.415e-05,0.0,0 STARLINK-4210,1 52874U 22062AW  23123.07529793  .00001415  00000-0  10695-3 0  9996,2 52874  53.2183  10.1088 0001120  63.4386 296.6721 15.08845994 49304,6917.862,95.437,540.502,538.952,0.0
52874.0,STARLINK-4210,PAYLOAD,2023-05-03 09:45:21,15.08839787,9.43e-05,53.2195,8.6209,85.4436,274.6664,5.6912e-05,6.18e-06,0.0,0 STARLINK-4210,1 52874U 22062AW  23123.40650214  .00000618  00000-0  56912-4 0  9993,2 52874  53.2195   8.6209 0000943  85.4436 274.6664 15.08839787 49356,6917.881,95.438,540.398,539.094,0.0
52874.0,STARLINK-4210,PAYLOAD,2023-05-03 20:53:03,15.08843719,0.000114,53.2179,6.5408,78.6435,281.4685,-1.6084e-05,-5.44e-06,0.0,0 STARLINK-4210,1 52874U 22062AW  23123.87018228 -.00000544  00000-0 -16084-4 0  9993,2 52874  53.2179   6.5408 0001140  78.6435 281.4685 15.08843719 48931,6917.869,95.437,540.523,538.945,0.0
52874.0,STARLINK-4210,PAYLOAD,2023-05-04 09:36:08,15.08846232,0.0001016,53.2172,4.1617,79.0835,281.0272,-4.0015e-05,-9.25e-06,0.0,0 STARLINK-4210,1 52874U 22062AW  23124.40009894 -.00000925  00000-0 -40015-4 0  9996,2 52874  53.2172   4.1617 0001016  79.0835 281.0272 15.08846232 49012,6917.861,95.437,540.429,539.023,0.0
52874.0,STARLINK-4210,PAYLOAD,2023-05-04 22:19:13,15.08843368,0.0001064,53.2183,1.7816,86.425,273.6864,-3.4643e-05,-8.39e-06,0.0,0 STARLINK-4210,1 52874U 22062AW  23124.93002124 -.00000839  00000-0 -34643-4 0  9997,2 52874  53.2183   1.7816 0001064  86.4250 273.6864 15.08843368 49587,6917.87,95.437,540.471,538.999,0.0
52874.0,STARLINK-4210,PAYLOAD,2023-05-05 15:48:28,15.08826317,0.0001138,53.2175,358.5107,93.0716,267.0407,0.00015686,2.209e-05,0.0,0 STARLINK-4210,1 52874U 22062AW  23125.65866510  .00002209  00000-0  15686-3 0  9990,2 52874  53.2175 358.5107 0001138  93.0716 267.0407 15.08826317 49694,6917.922,95.438,540.574,539.0,0.0
52874.0,STARLINK-4210,PAYLOAD,2023-05-05 22:10:00,15.08837632,9.63e-05,53.2184,357.3203,95.4933,264.6169,0.00010594,1.399e-05,0.0,0 STARLINK-4210,1 52874U 22062AW  23125.92361983  .00001399  00000-0  10594-3 0  9996,2 52874  53.2184 357.3203 0000963  95.4933 264.6169 15.08837632 49735,6917.888,95.438,540.419,539.086,0.0
52874.0,STARLINK-4210,PAYLOAD,2023-05-06 15:39:15,15.08834297,0.0001098,53.2177,354.0516,93.6239,266.4879,6.4358e-06,-1.85e-06,0.0,0 STARLINK-4210,1 52874U 22062AW  23126.65226719 -.00000185  00000-0  64358-5 0  9996,2 52874  53.2177 354.0516 0001098  93.6239 266.4879 15.08834297 49357,6917.898,95.438,540.522,539.003,0.0
52874.0,STARLINK-4210,PAYLOAD,2023-05-06 22:00:48,15.08842837,0.0001029,53.2176,352.8647,83.2201,276.8908,1.8892e-05,1.3e-07,0.0,0 STARLINK-4210,1 52874U 22062AW  23126.91722223  .00000013  00000-0  18892-4 0  9996,2 52874  53.2176 352.8647 0001029  83.2201 276.8908 15.08842837 49396,6917.872,95.437,540.449,539.025,0.0
52874.0,STARLINK-4210,PAYLOAD,2023-05-07 21:51:35,15.08833708,9.17e-05,53.217,348.4041,80.6559,279.4537,2.1688e-05,5.7e-07,0.0,0 STARLINK-4210,1 52874U 22062AW  23127.91083115  .00000057  00000-0  21688-4 0  9992,2 52874  53.2170 348.4041 0000917  80.6559 279.4537 15.08833708 50038,6917.9,95.438,540.399,539.13,0.0
52874.0,STARLINK-4210,PAYLOAD,2023-05-08 20:06:59,15.08840844,9.27e-05,53.2172,344.2405,80.968,279.1417,6.4549e-05,7.4e-06,0.0,0 STARLINK-4210,1 52874U 22062AW  23128.83818718  .00000740  00000-0  64549-4 0  9991,2 52874  53.2172 344.2405 0000927  80.9680 279.1417 15.08840844 50175,6917.878,95.438,540.384,539.102,0.0
52874.0,STARLINK-4210,PAYLOAD,2023-05-08 21:42:22,15.08843754,9.6e-05,53.2172,343.9429,85.9868,274.1233,6.4199e-05,7.34e-06,0.0,0 STARLINK-4210,1 52874U 22062AW  23128.90442533  .00000734  00000-0  64199-4 0  9991,2 52874  53.2172 343.9429 0000960  85.9868 274.1233 15.08843754 49696,6917.869,95.437,540.398,539.07,0.0
52874.0,STARLINK-4210,PAYLOAD,2023-05-09 00:53:08,15.08849623,0.0001013,53.2171,343.3487,84.5836,275.5271,0.00012913,1.768e-05,0.0,0 STARLINK-4210,1 52874U 22062AW  23129.03689926  .00001768  00000-0  12913-3 0  9999,2 52874  53.2171 343.3487 0001013  84.5836 275.5271 15.08849623 50200,6917.851,95.437,540.417,539.015,0.0
52874.0,STARLINK-4210,PAYLOAD,2023-05-10 00:43:55,15.0884347,9.43e-05,53.2173,338.8874,95.3593,264.7507,8.3099e-05,1.035e-05,0.0,0 STARLINK-4210,1 52874U 22062AW  23130.03050590  .00001035  00000-0  83099-4 0  9991,2 52874  53.2173 338.8874 0000943  95.3593 264.7507 15.08843470 49868,6917.87,95.437,540.387,539.082,0.0
52874.0,STARLINK-4210,PAYLOAD,2023-05-10 19:48:33,15.0884172,9.73e-05,53.2182,335.3189,94.3153,265.795,3.4386e-05,2.6e-06,0.0,0 STARLINK-4210,1 52874U 22062AW  23130.82538850  .00000260  00000-0  34386-4 0  9992,2 52874  53.2182 335.3189 0000973  94.3153 265.7950 15.08841720 49985,6917.875,95.437,540.413,539.067,0.0
52874.0,STARLINK-4210,PAYLOAD,2023-05-10 21:23:56,15.0885224,0.0001006,53.2174,335.0216,95.7044,264.4062,2.2283e-05,6.7e-07,0.0,0 STARLINK-4210,1 52874U 22062AW  23130.89162206  .00000067  00000-0  22283-4 0  9995,2 52874  53.2174 335.0216 0001006  95.7044 264.4062 15.08852240 49996,6917.843,95.437,540.404,539.012,0.0
52874.0,STARLINK-4210,PAYLOAD,2023-05-11 19:39:20,15.0884062,9.85e-05,53.2173,330.8581,90.6572,269.4533,-3.0142e-06,-3.36e-06,0.0,0 STARLINK-4210,1 52874U 22062AW  23131.81899005 -.00000336  00000-0 -30142-5 0  9997,2 52874  53.2173 330.8581 0000985  90.6572 269.4533 15.08840620 50627,6917.878,95.438,540.425,539.062,0.0
52874.0,STARLINK-4210,PAYLOAD,2023-05-12 17:54:44,15.08842997,9.56e-05,53.2175,326.6927,103.7179,256.392,-6.1199e-05,-1.262e-05,0.0,0 STARLINK-4210,1 52874U 22062AW  23132.74635217 -.00001262  00000-0 -61199-4 0  9997,2 52874  53.2175 326.6927 0000956 103.7179 256.3920 15.08842997 50278,6917.871,95.437,540.398,539.075,0.0
52874.0,STARLINK-4210,PAYLOAD,2023-05-13 00:16:16,15.08848715,9.63e-05,53.2174,325.5054,81.4923,278.6178,2.948e-05,1.82e-06,0.0,0 STARLINK-4210,1 52874U 22062AW  23133.01130542  .00000182  00000-0  29480-4 0  9994,2 52874  53.2174 325.5054 0000963  81.4923 278.6178 15.08848715 50808,6917.854,95.437,540.385,539.053,0.0
52874.0,STARLINK-4210,PAYLOAD,2023-05-13 19:20:54,15.08840051,9.17e-05,53.2171,321.9374,89.4425,270.6673,8.1976e-05,1.017e-05,0.0,0 STARLINK-4210,1 52874U 22062AW  23133.80618998  .00001017  00000-0  81976-4 0  9993,2 52874  53.2171 321.9374 0000917  89.4425 270.6673 15.08840051 50430,6917.88,95.438,540.38,539.111,0.0
52874.0,STARLINK-4210,PAYLOAD,2023-05-14 12:50:10,15.08837075,8.55e-05,53.2171,318.6675,76.6193,283.4894,-2.4381e-05,-6.76e-06,0.0,0 STARLINK-4210,1 52874U 22062AW  23134.53483828 -.00000676  00000-0 -24381-4 0  9995,2 52874  53.2171 318.6675 0000855  76.6193 283.4894 15.08837075 51034,6917.889,95.438,540.346,539.163,0.0
52874.0,STARLINK-4210,PAYLOAD,2023-05-14 19:11:42,15.08840799,8.24e-05,53.217,317.4772,72.6339,287.4743,8.324e-06,-1.55e-06,0.0,0 STARLINK-4210,1 52874U 22062AW  23134.79979437 -.00000155  00000-0  83240-5 0  9990,2 52874  53.2170 317.4772 0000824  72.6339 287.4743 15.08840799 50585,6917.878,95.438,540.313,539.173,0.0
52874.0,STARLINK-4210,PAYLOAD,2023-05-14 22:22:28,15.08844322,8.99e-05,53.2176,316.8821,84.7139,275.3956,4.6418e-05,4.51e-06,0.0,0 STARLINK-4210,1 52874U 22062AW  23134.93227066  .00000451  00000-0  46418-4 0  9993,2 52874  53.2176 316.8821 0000899  84.7139 275.3956 15.08844322 51098,6917.867,95.437,540.354,539.11,0.0
52874.0,STARLINK-4210,PAYLOAD,2023-05-15 04:44:01,15.08840642,9.05e-05,53.2177,315.6933,85.9274,274.1821,-3.2295e-06,-3.39e-06,0.0,0 STARLINK-4210,1 52874U 22062AW  23135.19723446 -.00000339  00000-0 -32295-5 0  9991,2 52874  53.2177 315.6933 0000905  85.9274 274.1821 15.08840642 50640,6917.878,95.438,540.369,539.117,0.0
52874.0,STARLINK-4210,PAYLOAD,2023-05-15 19:02:29,15.0883482,8.17e-05,53.2166,313.0182,91.5457,268.5629,-2.5119e-05,-6.87e-06,0.0,0 STARLINK-4210,1 52874U 22062AW  23135.79340075 -.00000687  00000-0 -25119-4 0  9992,2 52874  53.2166 313.0182 0000817  91.5457 268.5629 15.08834820 51223,6917.896,95.438,540.326,539.196,0.0
52874.0,STARLINK-4210,PAYLOAD,2023-05-16 10:56:21,15.08835185,8.44e-05,53.2168,310.0442,94.9713,265.1375,7.5119e-06,-1.68e-06,0.0,0 STARLINK-4210,1 52874U 22062AW  23136.45580168 -.00000168  00000-0  75119-5 0  9994,2 52874  53.2168 310.0442 0000844  94.9713 265.1375 15.08835185 50835,6917.895,95.438,540.344,539.176,0.0
52874.0,STARLINK-4210,PAYLOAD,2023-05-17 04:25:35,15.08835393,8.1e-05,53.2164,306.7735,90.717,269.3915,3.9596e-05,3.42e-06,0.0,0 STARLINK-4210,1 52874U 22062AW  23137.18444170  .00000342  00000-0  39596-4 0  9998,2 52874  53.2164 306.7735 0000810  90.7170 269.3915 15.08835393 51436,6917.894,95.438,540.32,539.199,0.0
52874.0,STARLINK-4210,PAYLOAD,2023-05-17 18:44:03,15.08841648,8.8e-05,53.2166,304.0964,80.9446,279.1646,8.3889e-05,1.048e-05,0.0,0 STARLINK-4210,1 52874U 22062AW  23137.78059730  .00001048  00000-0  83889-4 0  9996,2 52874  53.2166 304.0964 0000880  80.9446 279.1646 15.08841648 51527,6917.875,95.437,540.349,539.132,0.0
52874.0,STARLINK-4210,PAYLOAD,2023-05-18 13:48:41,15.088381,0.0001053,53.2181,300.5285,80.9524,279.1588,3.3218e-05,2.41e-06,0.0,0 STARLINK-4210,1 52874U 22062AW  23138.57548169  .00000241  00000-0  33218-4 0  9998,2 52874  53.2181 300.5285 0001053  80.9524 279.1588 15.08838100 51154,6917.886,95.438,540.48,539.023,0.0
52874.0,STARLINK-4210,PAYLOAD,2023-05-18 20:10:13,15.08841415,0.0001141,53.2182,299.3391,80.4573,279.6548,6.0971e-05,6.83e-06,0.0,0 STARLINK-4210,1 52874U 22062AW  23138.84043878  .00000683  00000-0  60971-4 0  9991,2 52874  53.2182 299.3391 0001141  80.4573 279.6548 15.08841415 51193,6917.876,95.437,540.53,538.952,0.0
